NORAD_CAT_ID,OBJECT_NAME,OBJECT_TYPE,EPOCH,MEAN_MOTION,ECCENTRICITY,INCLINATION,RA_OF_ASC_NODE,ARG_OF_PERICENTER,MEAN_ANOMALY,BSTAR,MEAN_MOTION_DOT,MEAN_MOTION_DDOT,TLE_LINE0,TLE_LINE1,TLE_LINE2,SEMIMAJOR_AXIS,PERIOD,APOGEE,PERIGEE,DECAYED
53546.0,STARLINK-4477,PAYLOAD,2022-10-23 14:00:01,15.60344323,0.0001210999999999,53.2173,193.2759,70.3227,67.0103,-0.015018,-0.01132919,0.0,0 STARLINK-4477,1 53546U 22101V   22296.58334491 -.01132919  00000-0 -15018-1 0  9991,2 53546  53.2173 193.2759 0001211  70.3227  67.0103 15.60344323  1300,6764.799,92.287,387.483,385.844,0.0
53546.0,STARLINK-4477,PAYLOAD,2022-10-23 22:00:00,15.59542153,0.0001231999999999,53.2173,191.659,93.2317,117.0788,-0.015712,-0.01147655,0.0,0 STARLINK-4477,1 53546U 22101V   22296.91667824 -.01147655  00000-0 -15712-1 0  9991,2 53546  53.2173 191.6590 0001232  93.2317 117.0788 15.59542153  1306,6767.118,92.335,389.817,388.149,0.0
53546.0,STARLINK-4477,PAYLOAD,2022-10-24 06:00:00,15.58731284,0.0001111,53.2169,190.0447,79.0906,203.2236,-0.016268,-0.01151501,0.0,0 STARLINK-4477,1 53546U 22101V   22297.25001157 -.01151501  00000-0 -16268-1 0  9992,2 53546  53.2169 190.0447 0001111  79.0906 203.2236 15.58731284 10330,6769.465,92.383,392.082,390.578,0.0
53546.0,STARLINK-4477,PAYLOAD,2022-10-24 14:00:01,15.57901533,0.0001,53.2173,188.4298,78.8157,274.5349,-0.016442,-0.01129896,0.0,0 STARLINK-4477,1 53546U 22101V   22297.58334491 -.01129896  00000-0 -16442-1 0  9994,2 53546  53.2173 188.4298 0001000  78.8157 274.5349 15.57901533  1300,6771.868,92.432,394.411,393.056,0.0
53546.0,STARLINK-4477,PAYLOAD,2022-10-24 22:00:00,15.57094506,0.0001084,53.2173,186.8194,82.2062,341.1909,-0.017106,-0.01139267,0.0,0 STARLINK-4477,1 53546U 22101V   22297.91667824 -.01139267  00000-0 -17106-1 0  9991,2 53546  53.2173 186.8194 0001084  82.2062 341.1909 15.57094506  1309,6774.208000000001,92.48,396.807,395.339,0.0
53546.0,STARLINK-4477,PAYLOAD,2022-10-25 06:00:00,15.56294099,0.0001216,53.217,185.2104,68.7997,63.6625,-0.017918,-0.01156236,0.0,0 STARLINK-4477,1 53546U 22101V   22298.25001157 -.01156236  00000-0 -17918-1 0  9996,2 53546  53.2170 185.2104 0001216  68.7997  63.6625 15.56294099 10492,6776.53,92.527,399.219,397.571,0.0
53546.0,STARLINK-4477,PAYLOAD,2022-10-25 14:00:01,15.55461331,0.000125,53.2174,183.6015,81.8914,118.6751,-0.018034,-0.01130822,0.0,0 STARLINK-4477,1 53546U 22101V   22298.58334491 -.01130822  00000-0 -18034-1 0  9995,2 53546  53.2174 183.6015 0001250  81.8914 118.6751 15.55461331  1307,6778.949000000001,92.577,401.661,399.967,0.0
53546.0,STARLINK-4477,PAYLOAD,2022-10-25 22:00:01,15.54656355,0.000123,53.2175,181.9969,98.3014,169.4413,-0.018782,-0.01141911,0.0,0 STARLINK-4477,1 53546U 22101V   22298.91668981 -.01141911  00000-0 -18782-1 0  9997,2 53546  53.2175 181.9969 0001230  98.3014 169.4413 15.54656355  1309,6781.2890000000025,92.625,403.98800000000006,402.32,0.0
53546.0,STARLINK-4477,PAYLOAD,2022-10-26 14:00:01,15.53018819,0.0001064,53.2174,178.7908,73.8965,325.086,-0.019684,-0.01128298,0.0,0 STARLINK-4477,1 53546U 22101V   22299.58334491 -.01128298  00000-0 -19684-1 0  9992,2 53546  53.2174 178.7908 0001064  73.8965 325.0860 15.53018819 10709,6786.055,92.723,408.642,407.198,0.0
53546.0,STARLINK-4477,PAYLOAD,2022-10-26 22:00:00,15.52207043,0.0001283,53.2174,177.1931,63.7927,39.3706,-0.020316,-0.01130478,0.0,0 STARLINK-4477,1 53546U 22101V   22299.91667824 -.01130478  00000-0 -20316-1 0  9995,2 53546  53.2174 177.1931 0001283  63.7927  39.3706 15.52207043  1305,6788.420999999999,92.771,411.157,409.415,0.0
53546.0,STARLINK-4477,PAYLOAD,2022-10-27 06:00:00,15.51395563,0.0001252999999999,53.2172,175.5952,81.0298,85.3382,-0.021022,-0.01135399,0.0,0 STARLINK-4477,1 53546U 22101V   22300.25001157 -.01135399  00000-0 -21022-1 0  9998,2 53546  53.2172 175.5952 0001253  81.0298  85.3382 15.51395563 10809,6790.788000000001,92.82,413.503,411.802,0.0
53546.0,STARLINK-4477,PAYLOAD,2022-10-27 14:00:01,15.50465952,0.0001384,53.2167,173.9975,60.0511,168.6168,-0.012435,-0.00662981,0.0,0 STARLINK-4477,1 53546U 22101V   22300.58335648 -.00662981  00000-0 -12435-1 0  9998,2 53546  53.2167 173.9975 0001384  60.0511 168.6168 15.50465952  1301,6793.502,92.875,416.307,414.426,0.0
53546.0,STARLINK-4477,PAYLOAD,2022-10-27 22:00:00,15.49886977,0.0001329,53.2172,172.4059,56.2898,233.6448,-6.4887e-05,-4.132e-05,0.0,0 STARLINK-4477,1 53546U 22101V   22300.91667824 -.00004132  00000-0 -64887-4 0  9998,2 53546  53.2172 172.4059 0001329  56.2898 233.6448 15.49886977 10900,6795.193,92.91,417.961,416.155,0.0
53546.0,STARLINK-4477,PAYLOAD,2022-10-28 06:00:00,15.50161579,7.49e-05,53.2163,170.8122,50.9125,299.6968,-0.01215,-0.00642389,0.0,0 STARLINK-4477,1 53546U 22101V   22301.25001157 -.00642389  00000-0 -12150-1 0  9992,2 53546  53.2163 170.8122 0000749  50.9125 299.6968 15.50161579 10952,6794.391,92.894,416.765,415.747,0.0
53546.0,STARLINK-4477,PAYLOAD,2022-10-28 14:00:01,15.49601033,0.0001081,53.2173,169.2178,70.6221,341.0727,-0.0220919999999999,-0.01120455,0.0,0 STARLINK-4477,1 53546U 22101V   22301.58335648 -.01120455  00000-0 -22092-1 0  9995,2 53546  53.2173 169.2178 0001081  70.6221 341.0727 15.49601033  1308,6796.029,92.927,418.629,417.16,0.0
53546.0,STARLINK-4477,PAYLOAD,2022-10-28 22:00:01,15.48787039,0.0001309,53.2173,167.628,88.09,23.6854,-0.0227,-0.0111877999999999,0.0,0 STARLINK-4477,1 53546U 22101V   22301.91668981 -.01118780  00000-0 -22700-1 0  9995,2 53546  53.2173 167.6280 0001309  88.0900  23.6854 15.48787039  1308,6798.41,92.976,421.165,419.385,0.0
53546.0,STARLINK-4477,PAYLOAD,2022-10-29 08:00:01,15.47778793,0.0001210999999999,53.2175,165.6409,101.2678,174.1675,-0.023824,-0.01148566,0.0,0 STARLINK-4477,1 53546U 22101V   22302.33334491 -.01148566  00000-0 -23824-1 0  9991,2 53546  53.2175 165.6409 0001211 101.2678 174.1675 15.47778793 11123,6801.361999999999,93.037,424.051,422.404,0.0
53546.0,STARLINK-4477,PAYLOAD,2022-10-29 12:00:00,15.47369426,0.0001190999999999,53.2173,164.8464,91.9161,32.5836,-0.024072,-0.01144384,0.0,0 STARLINK-4477,1 53546U 22101V   22302.50001157 -.01144384  00000-0 -24072-1 0  9990,2 53546  53.2173 164.8464 0001191  91.9161  32.5836 15.47369426  1306,6802.562,93.061,425.237,423.617,0.0
53546.0,STARLINK-4477,PAYLOAD,2022-10-29 22:00:01,15.46352089,0.0001227,53.2175,162.866,80.3126,205.8389,-0.024924,-0.01143706,0.0,0 STARLINK-4477,1 53546U 22101V   22302.91668981 -.01143706  00000-0 -24924-1 0  9992,2 53546  53.2175 162.8660 0001227  80.3126 205.8389 15.46352089  1301,6805.545,93.122,428.245,426.575,0.0
53546.0,STARLINK-4477,PAYLOAD,2022-10-30 14:00:01,15.44735489,0.0001249,53.2169,159.6984,64.04899999999999,333.3974,-0.0267069999999999,-0.01157723,0.0,0 STARLINK-4477,1 53546U 22101V   22303.58334491 -.01157723  00000-0 -26707-1 0  9997,2 53546  53.2169 159.6984 0001249  64.0490 333.3974 15.44735489  1308,6810.292,93.22,433.008,431.307,0.0
53546.0,STARLINK-4477,PAYLOAD,2022-10-30 22:00:01,15.43916791,0.0001257,53.2173,158.1206,82.8242,8.9036,-0.02732,-0.01152104,0.0,0 STARLINK-4477,1 53546U 22101V   22303.91668981 -.01152104  00000-0 -27320-1 0  9998,2 53546  53.2173 158.1206 0001257  82.8242   8.9036 15.43916791  1306,6812.7,93.269,435.421,433.708,0.0
53546.0,STARLINK-4477,PAYLOAD,2022-10-31 14:00:01,15.42292516,0.0001367,53.2169,154.9651,70.4787,126.6798,-0.028925,-0.01154218,0.0,0 STARLINK-4477,1 53546U 22101V   22304.58334491 -.01154218  00000-0 -28925-1 0  9998,2 53546  53.2169 154.9651 0001367  70.4787 126.6798 15.42292516  1302,6817.482,93.368,440.279,438.415,0.0
53546.0,STARLINK-4477,PAYLOAD,2022-10-31 22:00:01,15.41473586,0.0001335,53.2172,153.393,94.455,154.05100000000004,-0.029555,-0.01147888,0.0,0 STARLINK-4477,1 53546U 22101V   22304.91668981 -.01147888  00000-0 -29555-1 0  9994,2 53546  53.2172 153.3930 0001335  94.4550 154.0510 15.41473586 11527,6819.896,93.417,442.672,440.851,0.0
53546.0,STARLINK-4477,PAYLOAD,2022-11-01 14:00:01,15.3984587,0.0001185,53.2171,150.2492,61.3051,286.7667,-0.031155,-0.01146187,0.0,0 STARLINK-4477,1 53546U 22101V   22305.58334491 -.01146187  00000-0 -31155-1 0  9994,2 53546  53.2171 150.2492 0001185  61.3051 286.7667 15.39845870  1304,6824.7019999999975,93.516,447.375,445.758,0.0
53546.0,STARLINK-4477,PAYLOAD,2022-11-01 22:00:00,15.39032917,0.0001185,53.2173,148.683,87.5306,308.8883,-0.032086,-0.01148856,0.0,0 STARLINK-4477,1 53546U 22101V   22305.91667824 -.01148856  00000-0 -32086-1 0  9999,2 53546  53.2173 148.6830 0001185  87.5306 308.8883 15.39032917  1302,6827.105,93.565,449.779,448.161,0.0
53546.0,STARLINK-4477,PAYLOAD,2022-11-02 14:00:01,15.37399541,0.0001293,53.2176,145.5509,91.9981,38.1862,-0.03353,-0.01138853,0.0,0 STARLINK-4477,1 53546U 22101V   22306.58334491 -.01138853  00000-0 -33530-1 0  9995,2 53546  53.2176 145.5509 0001293  91.9981  38.1862 15.37399541  1309,6831.939,93.665,454.68800000000016,452.921,0.0
53546.0,STARLINK-4477,PAYLOAD,2022-11-02 22:00:00,15.36585551,0.0001469,53.2175,143.9906,64.2538,111.3438,-0.03442,-0.0113858,0.0,0 STARLINK-4477,1 53546U 22101V   22306.91667824 -.01138580  00000-0 -34420-1 0  9997,2 53546  53.2175 143.9906 0001469  64.2538 111.3438 15.36585551 11836,6834.352,93.714,457.221,455.213,0.0
53546.0,STARLINK-4477,PAYLOAD,2022-11-03 14:00:01,15.3497719,0.0001336,53.2171,140.8693,72.7788,190.7056,-0.037133,-0.01163686,0.0,0 STARLINK-4477,1 53546U 22101V   22307.58334491 -.01163686  00000-0 -37133-1 0  9991,2 53546  53.2171 140.8693 0001336  72.7788 190.7056 15.34977190  1305,6839.125,93.812,461.904,460.077,0.0
53546.0,STARLINK-4477,PAYLOAD,2022-11-03 22:00:00,15.34144588,0.0001288,53.2176,139.3152,66.5272,239.4461,-0.037237,-0.01138572,0.0,0 STARLINK-4477,1 53546U 22101V   22307.91667824 -.01138572  00000-0 -37237-1 0  9998,2 53546  53.2176 139.3152 0001288  66.5272 239.4461 15.34144588 11981,6841.599,93.863,464.346,462.583,0.0
